$$SOE
2460154.500000000, A.D. 2023-Jul-29 00:00:00.0000, 3.077329632900046E+08, 3.710093404819934E+08, -2.725467087519985E+07,
2460161.500000000, A.D. 2023-Aug-05 00:00:00.0000, 3.000844497912569E+08, 3.780493311694371E+08, -2.673388966125497E+07,
2460168.500000000, A.D. 2023-Aug-12 00:00:00.0000, 2.923073303623753E+08, 3.849268619517252E+08, -2.620160409119813E+07,
2460175.500000000, A.D. 2023-Aug-19 00:00:00.0000, 2.844054278758034E+08, 3.916396224237298E+08, -2.565808786778837E+07,
2460182.500000000, A.D. 2023-Aug-26 00:00:00.0000, 2.763826015240856E+08, 3.981854075134396E+08, -2.510361847850171E+07,
2460189.500000000, A.D. 2023-Sep-02 00:00:00.0000, 2.682427433640712E+08, 4.045621175970729E+08, -2.453847692899470E+07,
2460196.500000000, A.D. 2023-Sep-09 00:00:00.0000, 2.599897749136019E+08, 4.107677583733678E+08, -2.396294749002507E+07,
2460203.500000000, A.D. 2023-Sep-16 00:00:00.0000, 2.516276439744808E+08, 4.168004404435705E+08, -2.337731747839934E+07,
2460210.500000000, A.D. 2023-Sep-23 00:00:00.0000, 2.431603221036338E+08, 4.226583788889154E+08, -2.278187708712548E+07,
2460217.500000000, A.D. 2023-Sep-30 00:00:00.0000, 2.345918023987148E+08, 4.283398940407110E+08, -2.217691913676018E+07,
2460224.500000000, A.D. 2023-Oct-07 00:00:00.0000, 2.259260952486651E+08, 4.338434129027572E+08, -2.156273857654780E+07,
2460231.500000000, A.D. 2023-Oct-14 00:00:00.0000, 2.171672230917574E+08, 4.391674679171873E+08, -2.093963210138619E+07,
2460238.500000000, A.D. 2023-Oct-21 00:00:00.0000, 2.083192174143328E+08, 4.443106946822846E+08, -2.030789805005267E+07,
2460245.500000000, A.D. 2023-Oct-28 00:00:00.0000, 1.993861165696726E+08, 4.492718308856583E+08, -1.966783626944935E+07,
2460252.500000000, A.D. 2023-Nov-04 00:00:00.0000, 1.903719631685377E+08, 4.540497156858371E+08, -1.901974789296755E+07,
2460259.500000000, A.D. 2023-Nov-11 00:00:00.0000, 1.812808012204307E+08, 4.586432889477109E+08, -1.836393509812975E+07,
2460266.500000000, A.D. 2023-Nov-18 00:00:00.0000, 1.721166732473143E+08, 4.630515902736995E+08, -1.770070086887005E+07,
2460273.500000000, A.D. 2023-Nov-25 00:00:00.0000, 1.628836174453698E+08, 4.672737578592145E+08, -1.703034876733270E+07,
2460280.500000000, A.D. 2023-Dec-02 00:00:00.0000, 1.535856649256654E+08, 4.713090271664475E+08, -1.635318271874619E+07,
2460287.500000000, A.D. 2023-Dec-09 00:00:00.0000, 1.442268371135897E+08, 4.751567293621007E+08, -1.566950682138202E+07,
2460294.500000000, A.D. 2023-Dec-16 00:00:00.0000, 1.348111435957804E+08, 4.788162895359923E+08, -1.497962520702741E+07,
2460301.500000000, A.D. 2023-Dec-23 00:00:00.0000, 1.253425807637766E+08, 4.822872253928621E+08, -1.428384192795807E+07,
2460308.500000000, A.D. 2023-Dec-30 00:00:00.0000, 1.158251299152606E+08, 4.855691474711946E+08, -1.358246066206497E+07,
2460315.500000000, A.D. 2024-Jan-06 00:00:00.0000, 1.062627530403698E+08, 4.886617585311995E+08, -1.287578426661944E+07,
2460322.500000000, A.D. 2024-Jan-13 00:00:00.0000, 9.665938946429567E+07, 4.915648503099782E+08, -1.216411461944234E+07,
2460329.500000000, A.D. 2024-Jan-20 00:00:00.0000, 8.701895457028222E+07, 4.942783007353403E+08, -1.144775260813051E+07,
2460336.500000000, A.D. 2024-Jan-27 00:00:00.0000, 7.734533857525414E+07, 4.968020722548338E+08, -1.072699802835202E+07,
2460343.500000000, A.D. 2024-Feb-03 00:00:00.0000, 6.764240492942648E+07, 4.991362103348877E+08, -1.000214942962059E+07,
2460350.500000000, A.D. 2024-Feb-10 00:00:00.0000, 5.791398861661435E+07, 5.012808418427972E+08, -9.273503957928538E+06,
2460357.500000000, A.D. 2024-Feb-17 00:00:00.0000, 4.816389449320731E+07, 5.032361733233380E+08, -8.541357207444787E+06,
2460364.500000000, A.D. 2024-Feb-24 00:00:00.0000, 3.839589570084872E+07, 5.050024891884906E+08, -7.806003083457798E+06,
2460371.500000000, A.D. 2024-Mar-02 00:00:00.0000, 2.861373218107788E+07, 5.065801497912698E+08, -7.067733681957215E+06,
2460378.500000000, A.D. 2024-Mar-09 00:00:00.0000, 1.882110942942412E+07, 5.079695893241869E+08, -6.326839203724146E+06,
2460385.500000000, A.D. 2024-Mar-16 00:00:00.0000, 9.021697882693032E+06, 5.091713137430791E+08, -5.583607923037082E+06,
2460392.500000000, A.D. 2024-Mar-23 00:00:00.0000, -7.808671656194476E+05, 5.101858998292574E+08, -4.838326110874057E+06,
2460399.500000000, A.D. 2024-Mar-30 00:00:00.0000, -1.058298736364785E+07, 5.110139953663864E+08, -4.091277709263235E+06,
2460406.500000000, A.D. 2024-Apr-06 00:00:00.0000, -2.038110455870353E+07, 5.116563170654756E+08, -3.342744055250436E+06,
2460413.500000000, A.D. 2024-Apr-13 00:00:00.0000, -3.017170196614482E+07, 5.121136470771430E+08, -2.593003911596507E+06,
2460420.500000000, A.D. 2024-Apr-20 00:00:00.0000, -3.995130420349448E+07, 5.123868307722529E+08, -1.842333498150527E+06,
2460427.500000000, A.D. 2024-Apr-27 00:00:00.0000, -4.971647770797481E+07, 5.124767752320657E+08, -1.091006430542380E+06,
2460434.500000000, A.D. 2024-May-04 00:00:00.0000, -5.946383145146491E+07, 5.123844477464314E+08, -3.392936315124035E+05,
2460441.500000000, A.D. 2024-May-11 00:00:00.0000, -6.919001771671893E+07, 5.121108742205391E+08, 4.125367551946640E+05,
2460448.500000000, A.D. 2024-May-18 00:00:00.0000, -7.889173285501112E+07, 5.116571375143430E+08, 1.164219442901760E+06,
2460455.500000000, A.D. 2024-May-25 00:00:00.0000, -8.856571800257659E+07, 5.110243757100332E+08, 1.915492069498330E+06,
2460462.500000000, A.D. 2024-Jun-01 00:00:00.0000, -9.820875969799060E+07, 5.102137802524795E+08, 2.666095244538516E+06,
2460469.500000000, A.D. 2024-Jun-08 00:00:00.0000, -1.078176901560130E+08, 5.092265939418004E+08, 3.415772551848590E+06,
2460476.500000000, A.D. 2024-Jun-15 00:00:00.0000, -1.173893868002406E+08, 5.080641093250482E+08, 4.164270515940517E+06,
2460483.500000000, A.D. 2024-Jun-22 00:00:00.0000, -1.269207720614217E+08, 5.067276686641018E+08, 4.911338720818371E+06,
2460490.500000000, A.D. 2024-Jun-29 00:00:00.0000, -1.364088155638447E+08, 5.052186636596912E+08, 5.656730127316356E+06,
2460497.500000000, A.D. 2024-Jul-06 00:00:00.0000, -1.458505360565645E+08, 5.035385324588602E+08, 6.400201144924730E+06,
2460504.500000000, A.D. 2024-Jul-13 00:00:00.0000, -1.552430011442115E+08, 5.016887567703728E+08, 7.141511510524333E+06,
2460511.500000000, A.D. 2024-Jul-20 00:00:00.0000, -1.645833268061608E+08, 4.996708602393240E+08, 7.880424250207245E+06,
2460518.500000000, A.D. 2024-Jul-27 00:00:00.0000, -1.738686773621553E+08, 4.974864071233208E+08, 8.616705706070840E+06,
2460525.500000000, A.D. 2024-Aug-03 00:00:00.0000, -1.830962656134437E+08, 4.951370008967558E+08, 9.350125572395414E+06,
2460532.500000000, A.D. 2024-Aug-10 00:00:00.0000, -1.922633529954148E+08, 4.926242827801324E+08, 1.008045692563039E+07,
2460539.500000000, A.D. 2024-Aug-17 00:00:00.0000, -2.013672496959597E+08, 4.899499302172760E+08, 1.080747624555606E+07,
2460546.500000000, A.D. 2024-Aug-24 00:00:00.0000, -2.104053147132629E+08, 4.871156552789270E+08, 1.153096342314079E+07,
2460553.500000000, A.D. 2024-Aug-31 00:00:00.0000, -2.193749557390152E+08, 4.841232029316964E+08, 1.225070173934680E+07,
2460560.500000000, A.D. 2024-Sep-07 00:00:00.0000, -2.282736285033212E+08, 4.809743492990371E+08, 1.296647779156926E+07,
2460567.500000000, A.D. 2024-Sep-14 00:00:00.0000, -2.370988354981260E+08, 4.776709009105275E+08, 1.367808144116920E+07,
2460574.500000000, A.D. 2024-Sep-21 00:00:00.0000, -2.458481261099919E+08, 4.742146953531029E+08, 1.438530600177756E+07,
2460581.500000000, A.D. 2024-Sep-28 00:00:00.0000, -2.545190986505081E+08, 4.706076000969145E+08, 1.508794844923306E+07,
2460588.500000000, A.D. 2024-Oct-05 00:00:00.0000, -2.631094006157743E+08, 4.668515094960049E+08, 1.578580931675974E+07,
2460595.500000000, A.D. 2024-Oct-12 00:00:00.0000, -2.716167275383250E+08, 4.629483429439004E+08, 1.647869255205598E+07,
2460602.500000000, A.D. 2024-Oct-19 00:00:00.0000, -2.800388221842938E+08, 4.589000439144398E+08, 1.716640547477499E+07,
2460609.500000000, A.D. 2024-Oct-26 00:00:00.0000, -2.883734741292497E+08, 4.547085790866598E+08, 1.784875877195388E+07,
2460616.500000000, A.D. 2024-Nov-02 00:00:00.0000, -2.966185194565410E+08, 4.503759374051611E+08, 1.852556649579561E+07,
2460623.500000000, A.D. 2024-Nov-09 00:00:00.0000, -3.047718404828347E+08, 4.459041290965722E+08, 1.919664605677879E+07,
2460630.500000000, A.D. 2024-Nov-16 00:00:00.0000, -3.128313654861927E+08, 4.412951846423709E+08, 1.986181820990232E+07,
2460637.500000000, A.D. 2024-Nov-23 00:00:00.0000, -3.207950683909438E+08, 4.365511536581380E+08, 2.052090702585167E+07,
2460644.500000000, A.D. 2024-Nov-30 00:00:00.0000, -3.286609682021978E+08, 4.316741036364633E+08, 2.117373982468498E+07,
2460651.500000000, A.D. 2024-Dec-07 00:00:00.0000, -3.364271277717793E+08, 4.266661189738770E+08, 2.182014706814903E+07,
2460658.500000000, A.D. 2024-Dec-14 00:00:00.0000, -3.440916525857686E+08, 4.215293015057081E+08, 2.245996237403476E+07,
2460665.500000000, A.D. 2024-Dec-21 00:00:00.0000, -3.516526918936957E+08, 4.162657713087117E+08, 2.309302276406595E+07,
2460672.500000000, A.D. 2024-Dec-28 00:00:00.0000, -3.591084402070481E+08, 4.108776648039999E+08, 2.371916872217506E+07,
2460679.500000000, A.D. 2025-Jan-04 00:00:00.0000, -3.664571365703548E+08, 4.053671325348429E+08, 2.433824401946875E+07,
2460686.500000000, A.D. 2025-Jan-11 00:00:00.0000, -3.736970634280427E+08, 3.997363382788147E+08, 2.495009560890323E+07,
2460693.500000000, A.D. 2025-Jan-18 00:00:00.0000, -3.808265460051930E+08, 3.939874585759562E+08, 2.555457359900609E+07,
2460700.500000000, A.D. 2025-Jan-25 00:00:00.0000, -3.878439519591348E+08, 3.881226821982464E+08, 2.615153124586275E+07,
2460707.500000000, A.D. 2025-Feb-01 00:00:00.0000, -3.947476911127646E+08, 3.821442095297021E+08, 2.674082494384798E+07,
2460714.500000000, A.D. 2025-Feb-08 00:00:00.0000, -4.015362152115935E+08, 3.760542518761742E+08, 2.732231421163632E+07,
2460721.500000000, A.D. 2025-Feb-15 00:00:00.0000, -4.082080176760007E+08, 3.698550306841602E+08, 2.789586166944191E+07,
$$EOE